$$SOE
2459580.500000000, A.D. 2022-Jan-01 00:00:00.0000, 1.398787107739156E+08, 5.367988399055191E+08, -1.798906740661852E+08,
2459587.500000000, A.D. 2022-Jan-08 00:00:00.0000, 1.323790812223489E+08, 5.400071708849510E+08, -1.818963864327082E+08,
2459594.500000000, A.D. 2022-Jan-15 00:00:00.0000, 1.248472975889427E+08, 5.430845342420156E+08, -1.838579825806889E+08,
2459601.500000000, A.D. 2022-Jan-22 00:00:00.0000, 1.172854687397544E+08, 5.460313931732529E+08, -1.857753969684572E+08,
2459608.500000000, A.D. 2022-Jan-29 00:00:00.0000, 1.096956705882011E+08, 5.488482250205106E+08, -1.876485719468697E+08,
2459615.500000000, A.D. 2022-Feb-05 00:00:00.0000, 1.020799447321813E+08, 5.515355198730506E+08, -1.894774572516069E+08,
2459622.500000000, A.D. 2022-Feb-12 00:00:00.0000, 9.444029925230040E+07, 5.540937781422443E+08, -1.912620097968257E+08,
2459629.500000000, A.D. 2022-Feb-19 00:00:00.0000, 8.677871034674384E+07, 5.565235094762330E+08, -1.930021934548737E+08,
2459636.500000000, A.D. 2022-Feb-26 00:00:00.0000, 7.909712349145678E+07, 5.588252322892891E+08, -1.946979787601923E+08,
2459643.500000000, A.D. 2022-Mar-05 00:00:00.0000, 7.139745428457056E+07, 5.609994732869772E+08, -1.963493426018356E+08,
2459650.500000000, A.D. 2022-Mar-12 00:00:00.0000, 6.368158919659556E+07, 5.630467669197364E+08, -1.979562679299122E+08,
2459657.500000000, A.D. 2022-Mar-19 00:00:00.0000, 5.595138629722422E+07, 5.649676547914722E+08, -1.995187434798591E+08,
2459664.500000000, A.D. 2022-Mar-26 00:00:00.0000, 4.820867598099153E+07, 5.667626850159000E+08, -2.010367635167967E+08,
2459671.500000000, A.D. 2022-Apr-02 00:00:00.0000, 4.045526175946616E+07, 5.684324114636025E+08, -2.025103276104659E+08,
2459678.500000000, A.D. 2022-Apr-09 00:00:00.0000, 3.269292139190611E+07, 5.699773929035701E+08, -2.039394404650392E+08,
2459685.500000000, A.D. 2022-Apr-16 00:00:00.0000, 2.492340871145546E+07, 5.713981926924564E+08, -2.053241117829593E+08,
2459692.500000000, A.D. 2022-Apr-23 00:00:00.0000, 1.714845487830595E+07, 5.726953800949709E+08, -2.066643559576809E+08,
2459699.500000000, A.D. 2022-Apr-30 00:00:00.0000, 9.369767190038985E+06, 5.738695309886945E+08, -2.079601916066113E+08,
2459706.500000000, A.D. 2022-May-07 00:00:00.0000, 1.589028511441667E+06, 5.749212259784315E+08, -2.092116413857472E+08,
2459713.500000000, A.D. 2022-May-14 00:00:00.0000, -6.192101287017241E+06, 5.758510489579691E+08, -2.104187319652180E+08,
2459720.500000000, A.D. 2022-May-21 00:00:00.0000, -1.397198391263576E+07, 5.766595868773037E+08, -2.115814939173070E+08,
2459727.500000000, A.D. 2022-May-28 00:00:00.0000, -2.174900173435804E+07, 5.773474297555064E+08, -2.126999615508797E+08,
2459734.500000000, A.D. 2022-Jun-04 00:00:00.0000, -2.952155708986006E+07, 5.779151706255347E+08, -2.137741727427526E+08,
2459741.500000000, A.D. 2022-Jun-11 00:00:00.0000, -3.728807167102892E+07, 5.783634054124902E+08, -2.148041687787174E+08,
2459748.500000000, A.D. 2022-Jun-18 00:00:00.0000, -4.504698594896164E+07, 5.786927327580533E+08, -2.157899942063401E+08,
2459755.500000000, A.D. 2022-Jun-25 00:00:00.0000, -5.279675860884976E+07, 5.789037537574409E+08, -2.167316967045953E+08,
2459762.500000000, A.D. 2022-Jul-02 00:00:00.0000, -6.053586586052414E+07, 5.789970715427394E+08, -2.176293269876511E+08,
2459769.500000000, A.D. 2022-Jul-09 00:00:00.0000, -6.826280023423760E+07, 5.789732908892437E+08, -2.184829387638335E+08,
2459776.500000000, A.D. 2022-Jul-16 00:00:00.0000, -7.597606891665916E+07, 5.788330189274265E+08, -2.192925886560507E+08,
2459783.500000000, A.D. 2022-Jul-23 00:00:00.0000, -8.367419382488160E+07, 5.785768670379577E+08, -2.200583358754570E+08,
2459790.500000000, A.D. 2022-Jul-30 00:00:00.0000, -9.135571333374676E+07, 5.782054505748731E+08, -2.207802419293413E+08,
2459797.500000000, A.D. 2022-Aug-06 00:00:00.0000, -9.901918205782369E+07, 5.777193870642583E+08, -2.214583706397036E+08,
2459804.500000000, A.D. 2022-Aug-13 00:00:00.0000, -1.066631695110214E+08, 5.771192956327286E+08, -2.220927881717283E+08,
2459811.500000000, A.D. 2022-Aug-20 00:00:00.0000, -1.142862592125655E+08, 5.764057971617525E+08, -2.226835629688098E+08,
2459818.500000000, A.D. 2022-Aug-27 00:00:00.0000, -1.218870481708995E+08, 5.755795144403956E+08, -2.232307656589696E+08,
2459825.500000000, A.D. 2022-Sep-03 00:00:00.0000, -1.294641464975975E+08, 5.746410722052499E+08, -2.237344689638511E+08,
2459832.500000000, A.D. 2022-Sep-10 00:00:00.0000, -1.370161770613026E+08, 5.735910970910280E+08, -2.241947476162824E+08,
2459839.500000000, A.D. 2022-Sep-17 00:00:00.0000, -1.445417751523298E+08, 5.724302174898639E+08, -2.246116782891979E+08,
2459846.500000000, A.D. 2022-Sep-24 00:00:00.0000, -1.520395880974027E+08, 5.711590632683276E+08, -2.249853395457164E+08,
2459853.500000000, A.D. 2022-Oct-01 00:00:00.0000, -1.595082745843262E+08, 5.697782653197460E+08, -2.253158118343780E+08,
2459860.500000000, A.D. 2022-Oct-08 00:00:00.0000, -1.669465032890519E+08, 5.682884554737991E+08, -2.256031775244511E+08,
2459867.500000000, A.D. 2022-Oct-15 00:00:00.0000, -1.743529517366638E+08, 5.666902679625769E+08, -2.258475207981852E+08,
2459874.500000000, A.D. 2022-Oct-22 00:00:00.0000, -1.817263075771971E+08, 5.649843407590241E+08, -2.260489273376765E+08,
2459881.500000000, A.D. 2022-Oct-29 00:00:00.0000, -1.890652697780095E+08, 5.631713141935126E+08, -2.262074842470732E+08,
2459888.500000000, A.D. 2022-Nov-05 00:00:00.0000, -1.963685476336375E+08, 5.612518295892714E+08, -2.263232801787502E+08,
2459895.500000000, A.D. 2022-Nov-12 00:00:00.0000, -2.036348595578885E+08, 5.592265291840414E+08, -2.263964053801217E+08,
2459902.500000000, A.D. 2022-Nov-19 00:00:00.0000, -2.108629323771354E+08, 5.570960563837005E+08, -2.264269516732024E+08,
2459909.500000000, A.D. 2022-Nov-26 00:00:00.0000, -2.180515008623208E+08, 5.548610559502543E+08, -2.264150124233922E+08,
2459916.500000000, A.D. 2022-Dec-03 00:00:00.0000, -2.251993073334638E+08, 5.525221741124263E+08, -2.263606825136168E+08,
2459923.500000000, A.D. 2022-Dec-10 00:00:00.0000, -2.323051012909704E+08, 5.500800586173856E+08, -2.262640583264383E+08,
2459930.500000000, A.D. 2022-Dec-17 00:00:00.0000, -2.393676390488313E+08, 5.475353586984843E+08, -2.261252377383749E+08,
2459937.500000000, A.D. 2022-Dec-24 00:00:00.0000, -2.463856832601115E+08, 5.448887248930311E+08, -2.259443201417309E+08,
2459944.500000000, A.D. 2022-Dec-31 00:00:00.0000, -2.533580019769187E+08, 5.421408088174722E+08, -2.257214065178054E+08,
2459951.500000000, A.D. 2023-Jan-07 00:00:00.0000, -2.602833671220570E+08, 5.392922638622853E+08, -2.254565994940059E+08,
2459958.500000000, A.D. 2023-Jan-14 00:00:00.0000, -2.671605543392269E+08, 5.363437473035260E+08, -2.251500031638880E+08,
2459965.500000000, A.D. 2023-Jan-21 00:00:00.0000, -2.739883448659571E+08, 5.332959206583164E+08, -2.248017228700039E+08,
2459972.500000000, A.D. 2023-Jan-28 00:00:00.0000, -2.807655257610514E+08, 5.301494480881594E+08, -2.244118653013856E+08,
2459979.500000000, A.D. 2023-Feb-04 00:00:00.0000, -2.874908886954828E+08, 5.269049958776745E+08, -2.239805386390662E+08,
2459986.500000000, A.D. 2023-Feb-11 00:00:00.0000, -2.941632291019982E+08, 5.235632327954912E+08, -2.235078526009774E+08,
2459993.500000000, A.D. 2023-Feb-18 00:00:00.0000, -3.007813457464432E+08, 5.201248305143291E+08, -2.229939184476262E+08,
2460000.500000000, A.D. 2023-Feb-25 00:00:00.0000, -3.073440404578131E+08, 5.165904639286590E+08, -2.224388489857521E+08,
2460007.500000000, A.D. 2023-Mar-04 00:00:00.0000, -3.138501179146381E+08, 5.129608113890407E+08, -2.218427585777139E+08,
2460014.500000000, A.D. 2023-Mar-11 00:00:00.0000, -3.202983854588295E+08, 5.092365548540150E+08, -2.212057631591122E+08,
2460021.500000000, A.D. 2023-Mar-18 00:00:00.0000, -3.266876528896028E+08, 5.054183799104853E+08, -2.205279802728988E+08,
2460028.500000000, A.D. 2023-Mar-25 00:00:00.0000, -3.330167320337766E+08, 5.015069756157695E+08, -2.198095291423075E+08,
2460035.500000000, A.D. 2023-Apr-01 00:00:00.0000, -3.392844356675415E+08, 4.975030345550410E+08, -2.190505307891687E+08,
2460042.500000000, A.D. 2023-Apr-08 00:00:00.0000, -3.454895764047932E+08, 4.934072543394760E+08, -2.182511080408893E+08,
2460049.500000000, A.D. 2023-Apr-15 00:00:00.0000, -3.516309678886286E+08, 4.892203394393802E+08, -2.174113853020225E+08,
2460056.500000000, A.D. 2023-Apr-22 00:00:00.0000, -3.577074264760703E+08, 4.849430003003157E+08, -2.165314885052615E+08,
2460063.500000000, A.D. 2023-Apr-29 00:00:00.0000, -3.637177706808369E+08, 4.805759519945333E+08, -2.156115453080491E+08,
2460070.500000000, A.D. 2023-May-06 00:00:00.0000, -3.696608201348772E+08, 4.761199141888446E+08, -2.146516852279689E+08,
2460077.500000000, A.D. 2023-May-13 00:00:00.0000, -3.755353950456768E+08, 4.715756115358243E+08, -2.136520397007890E+08,
2460084.500000000, A.D. 2023-May-20 00:00:00.0000, -3.813403159152193E+08, 4.669437739976382E+08, -2.126127421231616E+08,
2460091.500000000, A.D. 2023-May-27 00:00:00.0000, -3.870744033271151E+08, 4.622251370734366E+08, -2.115339279005474E+08,
2460098.500000000, A.D. 2023-Jun-03 00:00:00.0000, -3.927364777442560E+08, 4.574204419566757E+08, -2.104157345039465E+08,
2460105.500000000, A.D. 2023-Jun-10 00:00:00.0000, -3.983253592931089E+08, 4.525304356089513E+08, -2.092583015391185E+08,
2460112.500000000, A.D. 2023-Jun-17 00:00:00.0000, -4.038398674454815E+08, 4.475558706905084E+08, -2.080617708416679E+08,
2460119.500000000, A.D. 2023-Jun-24 00:00:00.0000, -4.092788202776616E+08, 4.424975054032267E+08, -2.068262866230274E+08,
2460126.500000000, A.D. 2023-Jul-01 00:00:00.0000, -4.146410330538092E+08, 4.373561040743092E+08, -2.055519956230988E+08,
2460133.500000000, A.D. 2023-Jul-08 00:00:00.0000, -4.199253178077911E+08, 4.321324393030226E+08, -2.042390470491812E+08,
2460140.500000000, A.D. 2023-Jul-15 00:00:00.0000, -4.251304852001851E+08, 4.268272928412693E+08, -2.028875924156897E+08,
2460147.500000000, A.D. 2023-Jul-22 00:00:00.0000, -4.302553451286246E+08, 4.214414541737171E+08, -2.014977856920285E+08,
$$EOE